IRIDIUM 106             
1 41917U 17003A   25360.69747995 -.00000021  00000+0 -14546-4 0  9993
2 41917  86.3997 160.6266 0002338  93.5449 266.6014 14.34217427468483
IRIDIUM 103             
1 41918U 17003B   25360.47549088  .00000271  00000+0  89697-4 0  9997
2 41918  86.3994 160.6197 0001906 104.8184 255.3223 14.34220010468474
IRIDIUM 109             
1 41919U 17003C   25360.69113676  .00000519  00000+0  17818-3 0  9992
2 41919  86.3997 160.5861 0002011  95.1026 265.0399 14.34218137468479
IRIDIUM 102             
1 41920U 17003D   25360.72919036  .00000128  00000+0  38713-4 0  9996
2 41920  86.3992 160.4974 0002003  90.9058 269.2367 14.34218659468569
IRIDIUM 105             
1 41921U 17003E   25360.42085984  .00000266  00000+0  87896-4 0  9999
2 41921  86.3986 129.1174 0001979  96.8542 263.2879 14.34217881470371
IRIDIUM 104             
1 41922U 17003F   25360.46280230  .00000042  00000+0  78916-5 0  9991
2 41922  86.3993 160.6486 0001679  97.1421 262.9966 14.34217731468513
IRIDIUM 114             
1 41923U 17003G   25360.46914392  .00000269  00000+0  88904-4 0  9993
2 41923  86.4010 160.6315 0001846  90.3944 269.7463 14.34215545468492
IRIDIUM 108             
1 41924U 17003H   25360.63697286 -.00000035  00000+0 -19670-4 0  9990
2 41924  86.3986 128.9166 0001943  90.1469 269.9949 14.34217435470374
